{"spkid": "50092326", "covariance": {"epoch": "2459018.5", "elements": [{"label": "e", "name": "e", "sigma": 9.6205733168329e-08, "units": null, "title": "eccentricity", "value": ".5366449682712362"}, {"label": "q", "title": "perihelion distance", "value": ".9895196868156494", "units": "au", "sigma": 2.07790299883643e-07, "name": "q"}, {"units": "TDB", "value": "2458891.245684340656", "title": "time of perihelion passage", "sigma": 7.9885763035813e-05, "name": "tp", "label": "tp"}, {"label": "node", "sigma": 4.61562078565218e-05, "name": "om", "value": "272.4460433581033", "title": "longitude of the ascending node", "units": "deg"}, {"sigma": 8.32655903323826e-05, "name": "w", "units": "deg", "title": "argument of perihelion", "value": "320.1480701737254", "label": "peri"}, {"sigma": 2.2149223603034e-05, "name": "i", "title": "inclination", "value": "4.441845188283812", "units": "deg", "label": "i"}], "data": [["9.255543094455725E-15", "-1.998989492413208E-14", "-5.356684589303989E-12", "-4.892757769160416E-13", "-2.477868216527559E-12", "-1.779715113142809E-12"], ["-1.998989492413208E-14", "4.317680872573438E-14", "1.147679108072438E-11", "1.1005755491636E-12", "5.235155541965576E-12", "3.827354757032401E-12"], ["-5.356684589303989E-12", "1.147679108072438E-11", "6.381735135814062E-9", "-1.214552398799248E-9", "5.419725427967556E-9", "1.669999994187729E-9"], ["-4.892757769160416E-13", "1.1005755491636E-12", "-1.214552398799248E-9", "2.130395523694448E-9", "-3.104999011489492E-9", "-2.217136949873232E-10"], ["-2.477868216527559E-12", "5.235155541965576E-12", "5.419725427967556E-9", "-3.104999011489492E-9", "6.933158533400162E-9", "1.268378601542987E-9"], ["-1.779715113142809E-12", "3.827354757032401E-12", "1.669999994187729E-9", "-2.217136949873232E-10", "1.268378601542987E-9", "4.905881062171967E-10"]], "labels": ["e", "q", "tp", "node", "peri", "i"]}, "elements": [{"label": "e", "title": "eccentricity", "value": ".5335922151535422", "units": null, "sigma": "9.6295E-8", "name": "e"}, {"units": "au", "value": "2.138185388964867", "title": "semi-major axis", "name": "a", "sigma": "3.9762E-9", "label": "a"}, {"units": "au", "title": "perihelion distance", "value": ".9972663108581654", "sigma": "2.0718E-7", "name": "q", "label": "q"}, {"label": "i", "sigma": "2.225E-5", "name": "i", "units": "deg", "title": "inclination; angle with respect to x-y ecliptic plane", "value": "4.463454819916409"}, {"label": "node", "title": "longitude of the ascending node", "value": "272.1044118098185", "units": "deg", "name": "om", "sigma": "4.5555E-5"}, {"label": "peri", "units": "deg", "value": "320.5819315881771", "title": "argument of perihelion", "sigma": "8.2623E-5", "name": "w"}, {"name": "ma", "sigma": "2.7932E-5", "units": "deg", "title": "mean anomaly", "value": "8.476353362679145", "label": "M"}, {"label": "tp", "title": "time of perihelion passage", "value": "2461173.611101257369", "units": "TDB", "name": "tp", "sigma": "8.859E-5"}, {"label": "period", "units": "d", "value": "1142.00094464768", "title": "sidereal orbital period", "sigma": "3.1855E-6", "name": "per"}, {"sigma": "8.7932E-10", "name": "n", "units": "deg/d", "value": ".3152361665611967", "title": "mean motion", "label": "n"}, {"units": "au", "title": "aphelion distance", "value": "3.279104467071568", "sigma": "6.0978E-9", "name": "ad", "label": "Q"}], "epoch": "2461200.5"}